start=new Date('2022-03-10T00:00:00.000Z').valueOf();
sats=[{"OBJECT_ID":"2020-025AR","MEAN_ELEMENT_THEORY":"SGP4","GP_ID":"198357210","CENTER_NAME":"EARTH","RCS_SIZE":"LARGE","FILE":"3352875","ECCENTRICITY":"0.00014420","TLE_LINE1":"1 45570U 20025AR  22068.72946278  .00000497  00000-0  52280-4 0  9994","RA_OF_ASC_NODE":"165.1197","ELEMENT_SET_NO":"999","SITE":"AFETR","MEAN_MOTION_DOT":"0.00000497","MEAN_MOTION":"15.06393086","TLE_LINE2":"2 45570  53.0531 165.1197 0001442  73.5166 286.5981 15.06393086105162","MEAN_ANOMALY":"286.5981","EPHEMERIS_TYPE":"0","INCLINATION":"53.0531","SEMIMAJOR_AXIS":"6925.370","DECAY_DATE":null,"PERIOD":"95.593","OBJECT_NAME":"STARLINK-1376","APOAPSIS":"548.233","OBJECT_TYPE":"PAYLOAD","LAUNCH_DATE":"2020-04-22","REV_AT_EPOCH":"10516","BSTAR":"0.00005228000000","PERIAPSIS":"546.236","COUNTRY_CODE":"US","EPOCH":"2022-03-09T17:30:25.584192","REF_FRAME":"TEME","TIME_SYSTEM":"UTC","MEAN_MOTION_DDOT":"0.0000000000000","ARG_OF_PERICENTER":"73.5166","NORAD_CAT_ID":"45570","CLASSIFICATION_TYPE":"U"},{"MEAN_ANOMALY":"288.7595","EPHEMERIS_TYPE":"0","INCLINATION":"53.0547","SEMIMAJOR_AXIS":"6925.359","DECAY_DATE":null,"OBJECT_NAME":"STARLINK-1261","PERIOD":"95.592","LAUNCH_DATE":"2020-04-22","APOAPSIS":"548.305","OBJECT_TYPE":"PAYLOAD","PERIAPSIS":"546.143","REV_AT_EPOCH":"10529","BSTAR":"0.00018816000000","TIME_SYSTEM":"UTC","MEAN_MOTION_DDOT":"0.0000000000000","COUNTRY_CODE":"US","EPOCH":"2022-03-09T13:06:20.776320","REF_FRAME":"TEME","NORAD_CAT_ID":"45571","ARG_OF_PERICENTER":"71.3563","CLASSIFICATION_TYPE":"U","OBJECT_ID":"2020-025AS","CENTER_NAME":"EARTH","GP_ID":"198322890","MEAN_ELEMENT_THEORY":"SGP4","RCS_SIZE":"LARGE","TLE_LINE1":"1 45571U 20025AS  22068.54607380  .00002522  00000-0  18816-3 0  9990","ECCENTRICITY":"0.00015610","RA_OF_ASC_NODE":"155.9600","FILE":"3352425","ELEMENT_SET_NO":"999","SITE":"AFETR","MEAN_MOTION_DOT":"0.00002522","MEAN_MOTION":"15.06396718","TLE_LINE2":"2 45571  53.0547 155.9600 0001561  71.3563 288.7595 15.06396718105299"},{"TLE_LINE2":"2 45572  53.0535 155.6965 0001210  81.8959 278.2167 15.06390325105291","MEAN_MOTION":"15.06390325","MEAN_MOTION_DOT":"0.00005808","SITE":"AFETR","ELEMENT_SET_NO":"999","FILE":"3352875","ECCENTRICITY":"0.00012100","TLE_LINE1":"1 45572U 20025AT  22068.60506640  .00005808  00000-0  40859-3 0  9997","RA_OF_ASC_NODE":"155.6965","RCS_SIZE":"LARGE","OBJECT_ID":"2020-025AT","MEAN_ELEMENT_THEORY":"SGP4","GP_ID":"198358712","CENTER_NAME":"EARTH","CLASSIFICATION_TYPE":"U","ARG_OF_PERICENTER":"81.8959","NORAD_CAT_ID":"45572","COUNTRY_CODE":"US","EPOCH":"2022-03-09T14:31:17.736960","REF_FRAME":"TEME","TIME_SYSTEM":"UTC","MEAN_MOTION_DDOT":"0.0000000000000","REV_AT_EPOCH":"10529","BSTAR":"0.00040859000000","PERIAPSIS":"546.405","OBJECT_TYPE":"PAYLOAD","APOAPSIS":"548.081","LAUNCH_DATE":"2020-04-22","PERIOD":"95.593","DECAY_DATE":null,"OBJECT_NAME":"STARLINK-1320","SEMIMAJOR_AXIS":"6925.378","MEAN_ANOMALY":"278.2167","INCLINATION":"53.0535","EPHEMERIS_TYPE":"0"},{"BSTAR":"0.00080955000000","REV_AT_EPOCH":"10500","PERIAPSIS":"546.038","COUNTRY_CODE":"US","REF_FRAME":"TEME","EPOCH":"2022-03-09T17:10:31.593216","MEAN_MOTION_DDOT":"0.0000000000000","TIME_SYSTEM":"UTC","ARG_OF_PERICENTER":"58.7144","NORAD_CAT_ID":"45573","CLASSIFICATION_TYPE":"U","EPHEMERIS_TYPE":"0","INCLINATION":"53.0531","MEAN_ANOMALY":"301.4014","SEMIMAJOR_AXIS":"6925.372","DECAY_DATE":null,"OBJECT_NAME":"STARLINK-1321","PERIOD":"95.593","OBJECT_TYPE":"PAYLOAD","APOAPSIS":"548.435","LAUNCH_DATE":"2020-04-22","SITE":"AFETR","MEAN_MOTION_DOT":"0.00011795","MEAN_MOTION":"15.06392501","TLE_LINE2":"2 45573  53.0531 155.1898 0001730  58.7144 301.4014 15.06392501105001","MEAN_ELEMENT_THEORY":"SGP4","GP_ID":"198358963","CENTER_NAME":"EARTH","OBJECT_ID":"2020-025AU","RCS_SIZE":"LARGE","FILE":"3352875","RA_OF_ASC_NODE":"155.1898","ECCENTRICITY":"0.00017300","TLE_LINE1":"1 45573U 20025AU  22068.71564344  .00011795  00000-0  80955-3 0  9998","ELEMENT_SET_NO":"999"},{"RCS_SIZE":"LARGE","GP_ID":"198322139","MEAN_ELEMENT_THEORY":"SGP4","CENTER_NAME":"EARTH","OBJECT_ID":"2020-025AV","ELEMENT_SET_NO":"999","RA_OF_ASC_NODE":"155.9741","ECCENTRICITY":"0.00017360","TLE_LINE1":"1 45574U 20025AV  22068.54240821  .00000757  00000-0  69735-4 0  9991","FILE":"3352425","MEAN_MOTION_DOT":"0.00000757","SITE":"AFETR","TLE_LINE2":"2 45574  53.0548 155.9741 0001736  79.1654 280.9530 15.06382805105295","MEAN_MOTION":"15.06382805","SEMIMAJOR_AXIS":"6925.401","INCLINATION":"53.0548","EPHEMERIS_TYPE":"0","MEAN_ANOMALY":"280.9530","LAUNCH_DATE":"2020-04-22","OBJECT_TYPE":"PAYLOAD","APOAPSIS":"548.469","OBJECT_NAME":"STARLINK-1324","DECAY_DATE":null,"PERIOD":"95.593","MEAN_MOTION_DDOT":"0.0000000000000","TIME_SYSTEM":"UTC","COUNTRY_CODE":"US","REF_FRAME":"TEME","EPOCH":"2022-03-09T13:01:04.069344","PERIAPSIS":"546.064","BSTAR":"0.00006973500000","REV_AT_EPOCH":"10529","CLASSIFICATION_TYPE":"U","NORAD_CAT_ID":"45574","ARG_OF_PERICENTER":"79.1654"},{"TLE_LINE2":"2 45575  52.9996 147.4746 0000839  54.7812 305.3257 15.10623703105412","MEAN_MOTION":"15.10623703","MEAN_MOTION_DOT":"0.00009290","SITE":"AFETR","ELEMENT_SET_NO":"999","RA_OF_ASC_NODE":"147.4746","ECCENTRICITY":"0.00008390","TLE_LINE1":"1 45575U 20025AW  22068.91082713  .00009290  00000-0  57251-3 0  9997","FILE":"3352875","RCS_SIZE":"LARGE","GP_ID":"198357961","CENTER_NAME":"EARTH","MEAN_ELEMENT_THEORY":"SGP4","OBJECT_ID":"2020-025AW","CLASSIFICATION_TYPE":"U","NORAD_CAT_ID":"45575","ARG_OF_PERICENTER":"54.7812","MEAN_MOTION_DDOT":"0.0000000000000","TIME_SYSTEM":"UTC","COUNTRY_CODE":"US","EPOCH":"2022-03-09T21:51:35.464032","REF_FRAME":"TEME","PERIAPSIS":"533.719","BSTAR":"0.00057251000000","REV_AT_EPOCH":"10541","LAUNCH_DATE":"2020-04-22","OBJECT_TYPE":"PAYLOAD","APOAPSIS":"534.879","PERIOD":"95.325","DECAY_DATE":null,"OBJECT_NAME":"STARLINK-1326","SEMIMAJOR_AXIS":"6912.434","EPHEMERIS_TYPE":"0","INCLINATION":"52.9996","MEAN_ANOMALY":"305.3257"},{"MEAN_MOTION_DOT":"-0.00000114","SITE":"AFETR","TLE_LINE2":"2 45576  53.0537 156.1381 0001576  55.9074 304.2064 15.06388552105284","MEAN_MOTION":"15.06388552","RCS_SIZE":"LARGE","GP_ID":"198323140","MEAN_ELEMENT_THEORY":"SGP4","CENTER_NAME":"EARTH","OBJECT_ID":"2020-025AX","ELEMENT_SET_NO":"999","FILE":"3352425","RA_OF_ASC_NODE":"156.1381","ECCENTRICITY":"0.00015760","TLE_LINE1":"1 45576U 20025AX  22068.50185341 -.00000114  00000-0  11259-4 0  9990","COUNTRY_CODE":"US","REF_FRAME":"TEME","EPOCH":"2022-03-09T12:02:40.134624","MEAN_MOTION_DDOT":"0.0000000000000","TIME_SYSTEM":"UTC","BSTAR":"0.00001125900000","REV_AT_EPOCH":"10528","PERIAPSIS":"546.157","CLASSIFICATION_TYPE":"U","ARG_OF_PERICENTER":"55.9074","NORAD_CAT_ID":"45576","SEMIMAJOR_AXIS":"6925.384","INCLINATION":"53.0537","EPHEMERIS_TYPE":"0","MEAN_ANOMALY":"304.2064","OBJECT_TYPE":"PAYLOAD","APOAPSIS":"548.340","LAUNCH_DATE":"2020-04-22","OBJECT_NAME":"STARLINK-1328","DECAY_DATE":null,"PERIOD":"95.593"},{"TLE_LINE2":"2 45577  53.0517 154.2500 0001404  51.2016 308.9099 15.06403432105330","MEAN_MOTION":"15.06403432","MEAN_MOTION_DOT":"0.00010700","SITE":"AFETR","ELEMENT_SET_NO":"999","FILE":"3352875","TLE_LINE1":"1 45577U 20025AY  22068.92205609  .00010700  00000-0  73607-3 0  9992","ECCENTRICITY":"0.00014040","RA_OF_ASC_NODE":"154.2500","RCS_SIZE":"LARGE","OBJECT_ID":"2020-025AY","MEAN_ELEMENT_THEORY":"SGP4","GP_ID":"198358463","CENTER_NAME":"EARTH","CLASSIFICATION_TYPE":"U","ARG_OF_PERICENTER":"51.2016","NORAD_CAT_ID":"45577","COUNTRY_CODE":"US","REF_FRAME":"TEME","EPOCH":"2022-03-09T22:07:45.646176","TIME_SYSTEM":"UTC","MEAN_MOTION_DDOT":"0.0000000000000","REV_AT_EPOCH":"10533","BSTAR":"0.00073607000000","PERIAPSIS":"546.231","OBJECT_TYPE":"PAYLOAD","APOAPSIS":"548.175","LAUNCH_DATE":"2020-04-22","DECAY_DATE":null,"OBJECT_NAME":"STARLINK-1330","PERIOD":"95.592","SEMIMAJOR_AXIS":"6925.338","MEAN_ANOMALY":"308.9099","INCLINATION":"53.0517","EPHEMERIS_TYPE":"0"},{"RCS_SIZE":"LARGE","MEAN_ELEMENT_THEORY":"SGP4","GP_ID":"198357211","CENTER_NAME":"EARTH","OBJECT_ID":"2020-025AZ","ELEMENT_SET_NO":"999","RA_OF_ASC_NODE":"154.9929","ECCENTRICITY":"0.00014950","TLE_LINE1":"1 45578U 20025AZ  22068.75987695  .00006502  00000-0  45502-3 0  9994","FILE":"3352875","MEAN_MOTION_DOT":"0.00006502","SITE":"AFETR","TLE_LINE2":"2 45578  53.0516 154.9929 0001495  67.3856 292.7291 15.06397719105325","MEAN_MOTION":"15.06397719","SEMIMAJOR_AXIS":"6925.356","EPHEMERIS_TYPE":"0","INCLINATION":"53.0516","MEAN_ANOMALY":"292.7291","LAUNCH_DATE":"2020-04-22","OBJECT_TYPE":"PAYLOAD","APOAPSIS":"548.256","PERIOD":"95.592","DECAY_DATE":null,"OBJECT_NAME":"STARLINK-1331","MEAN_MOTION_DDOT":"0.0000000000000","TIME_SYSTEM":"UTC","EPOCH":"2022-03-09T18:14:13.368480","COUNTRY_CODE":"US","REF_FRAME":"TEME","PERIAPSIS":"546.185","BSTAR":"0.00045502000000","REV_AT_EPOCH":"10532","CLASSIFICATION_TYPE":"U","NORAD_CAT_ID":"45578","ARG_OF_PERICENTER":"67.3856"},{"APOAPSIS":"548.231","OBJECT_TYPE":"PAYLOAD","LAUNCH_DATE":"2020-04-22","PERIOD":"95.593","DECAY_DATE":null,"OBJECT_NAME":"STARLINK-1332","SEMIMAJOR_AXIS":"6925.376","MEAN_ANOMALY":"264.6288","INCLINATION":"53.0525","EPHEMERIS_TYPE":"0","CLASSIFICATION_TYPE":"U","ARG_OF_PERICENTER":"95.4864","NORAD_CAT_ID":"45579","REF_FRAME":"TEME","COUNTRY_CODE":"US","EPOCH":"2022-03-09T19:37:46.934112","TIME_SYSTEM":"UTC","MEAN_MOTION_DDOT":"0.0000000000000","REV_AT_EPOCH":"10588","BSTAR":"0.00017270000000","PERIAPSIS":"546.251","ELEMENT_SET_NO":"999","FILE":"3352875","ECCENTRICITY":"0.00014290","TLE_LINE1":"1 45579U 20025BA  22068.81790433  .00002291  00000-0  17270-3 0  9996","RA_OF_ASC_NODE":"114.7176","RCS_SIZE":"LARGE","OBJECT_ID":"2020-025BA","GP_ID":"198357461","CENTER_NAME":"EARTH","MEAN_ELEMENT_THEORY":"SGP4","TLE_LINE2":"2 45579  53.0525 114.7176 0001429  95.4864 264.6288 15.06391011105886","MEAN_MOTION":"15.06391011","MEAN_MOTION_DOT":"0.00002291","SITE":"AFETR"}];
